P/2011 Q3 (McNaught),e,6.0575,32.0277,310.9942,4.970998,0.0889280,0.53282841,334.6190,11/07.0/2021,2000,g 13.5,4.0
# From MPC 98558
P/2011 S1 (Gibbs),e,2.6855,218.8613,192.4234,8.583764,0.0391911,0.20089156,103.6327,11/07.0/2021,2000,g  8.0,4.0
# From MPC 79022
P/2011 UA134 (Spacewatch-PANSTARRS),e,10.4408,40.4038,32.4120,5.607695,0.0742211,0.62945204,271.0390,11/07.0/2021,2000,g 17.5,4.0
# From MPC 77406
P/2011 V1 (Boattini),e,7.3752,46.8132,269.3234,3.856043,0.1301641,0.55049832,147.2998,11/07.0/2021,2000,g 15.5,4.0
# From MPC 82718
P/2011 W1 (PANSTARRS),e,3.7185,161.7870,282.7440,4.662483,0.0978990,0.28749856,350.9261,11/07.0/2021,2000,g 11.5,4.0
# From MPC 79342
P/2011 Y2 (Boattini),e,6.3727,309.3588,131.9130,6.239446,0.0632390,0.70967098,223.5497,11/07.0/2021,2000,g 15.0,4.0
# From MPC 94669
P/2012 B1 (PANSTARRS),e,7.6114,36.2142,162.5078,6.530427,0.0590598,0.40909561,179.3172,11/07.0/2021,2000,g  9.0,4.0
# From MPC 78590
P/2012 C3 (PANSTARRS),e,9.0920,135.3677,344.9542,9.748681,0.0323806,0.63011148,359.9758,10/06.0/2011,2000,g 13.0,4.0
# From MPC 84931
P/2012 F2 (PANSTARRS),e,14.7112,227.0203,33.3116,6.331866,0.0618595,0.54195496,193.6820,11/07.0/2021,2000,g 12.0,4.0
# From MPC 79344
P/2012 G1 (PANSTARRS),e,11.6925,282.5440,286.1149,4.172871,0.1156250,0.38072240,359.9500,06/01.0/2012,2000,g 15.0,4.0
# From MPC 80898
P/2012 K3 (Gibbs),e,13.1940,125.8111,172.2134,3.626562,0.1427123,0.42318469,115.9568,11/07.0/2021,2000,g 15.0,4.0
# From MPC 88326
P/2012 NJ (La Sagra),e,84.6548,315.5496,338.3620,8.462992,0.0400330,0.84706101,137.4277,11/07.0/2021,2000,g 14.5,4.0
# From MPC 81470
P/2012 O1 (McNaught),e,7.4301,91.9669,238.2636,3.540985,0.1479170,0.59457268,145.0017,11/07.0/2021,2000,g 17.5,4.0
# From MPC 80899
P/2012 O2 (McNaught),e,24.4830,120.6820,183.4515,3.624690,0.1428229,0.53256799,130.8060,11/07.0/2021,2000,g 17.0,4.0
# From MPC 82720
P/2012 O3 (McNaught),e,16.6160,336.4146,344.7502,4.572150,0.1008146,0.64699108,339.4569,11/07.0/2021,2000,g 16.5,4.0
# From MPC 82320
P/2012 T2 (PANSTARRS),e,12.5611,73.7185,310.5103,5.733213,0.0717971,0.16164915,223.9760,11/07.0/2021,2000,g 10.0,4.0
# From MPC 80900
P/2012 T3 (PANSTARRS),e,9.5655,114.3985,195.4946,6.151218,0.0646044,0.61719443,224.4057,11/07.0/2021,2000,g 15.0,4.0
# From MPC 82720
P/2012 U2 (PANSTARRS),e,10.7567,185.3082,228.2493,7.137194,0.0516907,0.49887534,169.7269,11/07.0/2021,2000,g 12.5,4.0
# From MPC 84024
P/2012 US27 (Siding Spring),e,39.3527,49.1870,0.8030,5.166300,0.0839334,0.64784338,269.3839,11/07.0/2021,2000,g 13.5,4.0
# From MPC 82721
P/2012 WA34 (Lemmon-PANSTARRS),e,6.0798,93.8495,355.4766,4.713497,0.0963140,0.34611273,301.7575,11/07.0/2021,2000,g 13.5,4.0
# From MPC 82721
P/2013 AL76 (Catalina),e,144.8497,145.9884,27.0726,6.497010,0.0595160,0.68633514,193.8869,11/07.0/2021,2000,g 16.0,4.0
# From MPC 91612
P/2013 G1 (Kowalski),e,5.4625,221.3619,51.4844,6.892043,0.0544731,0.51237868,157.2334,11/07.0/2021,2000,g 11.0,4.0
# From MPC 84025
P/2013 G4 (PANSTARRS),e,5.9165,339.6380,214.6646,4.440199,0.1053417,0.40945204,336.3581,11/07.0/2021,2000,g 15.0,4.0
# From MPC 91613
P/2013 J2 (McNaught),e,15.5266,289.4028,37.7848,6.222722,0.0634941,0.65767240,189.9302,11/07.0/2021,2000,g 13.0,4.0
# From MPC 86229
P/2013 N3 (PANSTARRS),e,2.1740,17.4647,323.9200,7.392035,0.0490409,0.59333336,138.2933,11/07.0/2021,2000,g 13.0,4.0
# From MPC 85834
P/2013 N5 (PANSTARRS),e,23.4486,187.1572,176.9077,6.797832,0.0556094,0.73233111,169.4636,11/07.0/2021,2000,g 17.0,4.0
# From MPC 85834
P/2013 P1 (PANSTARRS),e,18.7252,160.5903,138.1949,8.574714,0.0392532,0.60562237,124.5099,11/07.0/2021,2000,g 12.0,4.0
# From MPC 94671
P/2013 R3 (Catalina-PANSTARRS),e,0.8652,341.9984,11.1962,3.033280,0.1865672,0.27539424,198.8026,11/07.0/2021,2000,g 14.0,4.0
# From unp
P/2013 R3-A (Catalina-PANSTARRS),e,0.8646,341.9653,11.2352,3.033138,0.1865803,0.27536381,198.8394,11/07.0/2021,2000,g  9.0,4.0
# From MPEC 2015-M77
P/2013 R3-B (Catalina-PANSTARRS),e,0.8658,342.0211,11.1701,3.033357,0.1865601,0.27540921,198.7829,11/07.0/2021,2000,g  9.0,4.0
# From MPC 85835
P/2013 T1 (PANSTARRS),e,24.2951,10.0810,346.1176,5.859199,0.0694939,0.62411358,209.6490,11/07.0/2021,2000,g 16.5,4.0
# From MPC 86643
P/2013 T2 (Schwartz),e,9.4572,0.8023,345.5344,3.490711,0.1511239,0.50125523,106.8821,11/07.0/2021,2000,g 16.0,4.0
# From MPC 91613
P/2013 W1 (PANSTARRS),e,4.6955,117.8464,1.2657,3.489164,0.1512244,0.59272460,63.9293,11/07.0/2021,2000,g 17.5,4.0
# From MPC101095
P/2013 YG46 (Spacewatch),e,7.8564,48.8421,242.5608,3.275406,0.1662671,0.45484542,289.3044,11/07.0/2021,2000,g 10.0,4.0
# From MPC 89728
P/2014 A2 (Hill),e,24.5358,106.6297,356.1797,5.927353,0.0682988,0.64529955,201.3654,11/07.0/2021,2000,g 15.0,4.0
# From MPC 92981
P/2014 A3 (PANSTARRS),e,13.7002,230.0129,213.6881,4.618065,0.0993148,0.24741596,307.4661,11/07.0/2021,2000,g 12.0,4.0
# From MPEC 2021-R75
C/2014 B1 (Schwartz),e,28.4115,161.4225,345.6944,4688,0.0000031,0.99796304,0.0000,09/07.2319/2017,2000,g  4.0,4.0
# From MPC102095
P/2014 C1 (TOTAS),e,2.6903,167.7763,23.9225,3.036970,0.1862273,0.44895896,174.7023,11/07.0/2021,2000,g 15.5,4.0
# From MPC 94280
C/2014 F3 (Sheppard-Trujillo),e,6.5900,326.7243,3.8050,15.14685,0.0167194,0.62429754,2.8326,11/07.0/2021,2000,g  6.0,4.0
# From MPC 98560
P/2014 L2 (NEOWISE),e,5.1998,149.3472,182.6781,6.303914,0.0622714,0.64826484,166.0364,11/07.0/2021,2000,g 12.0,4.0
# From MPC 90769
P/2014 L3 (Hill),e,6.2753,115.4767,178.6771,8.172581,0.0421857,0.77351752,113.2820,11/07.0/2021,2000,g 16.0,4.0
# From MPC 91614
P/2014 M4 (PANSTARRS),e,3.3382,263.2340,147.9695,5.871836,0.0692697,0.59472076,173.7153,11/07.0/2021,2000,g 15.0,4.0
# From MPC103844
P/2014 MG4 (Spacewatch-PANSTARRS),e,9.3705,311.7346,299.0975,5.012315,0.0878307,0.25933276,269.0604,11/07.0/2021,2000,g  9.5,4.0
# From MPC 98560
P/2014 O3 (PANSTARRS),e,7.8029,87.6447,204.6949,7.569102,0.0473301,0.38561870,130.5010,11/07.0/2021,2000,g 10.5,4.0
# From MPEC 2021-P47
C/2014 OE4 (PANSTARRS),h,12/13.0147/2016,81.2805,240.4310,65.8972,1.003204,6.250406,2000,11.0,2.0
# From MPEC 2021-S45
C/2014 OG392 (PANSTARRS),e,9.0327,145.7930,254.0705,12.23582,0.0230279,0.18522228,359.4978,11/07.0/2021,2000,g  6.0,4.0
# From MPC 91615
P/2014 R5 (Lemmon-PANSTARRS),e,1.0883,126.5611,213.7437,4.056463,0.1206376,0.41380360,325.6190,11/07.0/2021,2000,g 15.0,4.0
# From MPC 91616
P/2014 U4 (PANSTARRS),e,6.4291,11.8881,347.7628,3.506666,0.1500937,0.46492441,39.9926,11/07.0/2021,2000,g 18.0,4.0
# From MPC 95211
P/2014 V1 (PANSTARRS),e,22.5263,166.2002,177.6037,5.480262,0.0768249,0.53448213,190.3573,11/07.0/2021,2000,g 14.0,4.0
# From MPC 93586
P/2014 W1 (PANSTARRS),e,8.8376,246.2445,152.1901,4.463226,0.1045275,0.38891955,279.2313,11/07.0/2021,2000,g 15.5,4.0
# From MPC105542
P/2014 W4 (PANSTARRS),e,15.2782,33.3699,67.7180,6.594441,0.0582019,0.35240312,124.5224,11/07.0/2021,2000,g 11.0,4.0
# From MPC 94281
P/2014 X1 (Elenin),e,26.0215,61.5267,33.9222,6.207737,0.0637242,0.70883186,159.4864,11/07.0/2021,2000,g 15.0,4.0
# From MPC 92275
P/2015 A3 (PANSTARRS),e,172.5335,277.2231,249.3196,7.810661,0.0451515,0.85084986,110.8410,11/07.0/2021,2000,g 20.0,4.0
# From MPC 99270
P/2015 B1 (PANSTARRS),e,18.0390,352.9729,188.8952,9.496551,0.0336787,0.36738742,75.6733,11/07.0/2021,2000,g  8.5,4.0
# From MPC109141
P/2015 B4 (Lemmon-PANSTARRS),e,1.7607,266.0314,227.3939,8.525771,0.0395916,0.56008644,97.7602,11/07.0/2021,2000,g 11.0,4.0
# From MPC101096
P/2015 C1 (TOTAS-Gibbs),e,13.9007,348.8071,178.2328,6.580545,0.0583863,0.56032681,139.4142,11/07.0/2021,2000,g 12.5,4.0
# From MPC109141
P/2015 D5 (Kowalski),e,20.5126,74.0619,39.7870,8.963327,0.0367282,0.48905999,102.0351,11/07.0/2021,2000,g  9.0,4.0
# From MPC 96866
P/2015 D6 (Lemmon-PANSTARRS),e,20.2013,45.9481,125.1190,7.141264,0.0516466,0.36142467,119.9186,11/07.0/2021,2000,g 10.5,4.0
# From MPEC 2021-P47
C/2015 ER61 (PANSTARRS),e,6.3274,235.0844,68.4382,525.3940,0.0000818,0.99800922,0.0000,05/10.4892/2017,2000,g 11.0,2.0
# From MPEC 2018-BF5
C/2015 E61-B (PANSTARRS),e,6.3289,235.1195,68.5276,1677,0.0000144,0.99937523,0.0000,05/10.4671/2017,2000,g 13.5,2.0
# From MPEC 2021-P47
P/2015 HG16 (PANSTARRS),e,18.7750,58.2898,47.6578,4.752617,0.0951272,0.35231238,257.1146,11/07.0/2021,2000,g 12.5,4.0
# From MPC 95213
P/2015 K5 (PANSTARRS),e,39.9449,134.1789,106.3600,6.723611,0.0565328,0.55277525,132.7443,11/07.0/2021,2000,g 13.5,4.0
# From MPC107684
P/2015 M2 (PANSTARRS),e,3.9715,86.5860,225.7055,7.234928,0.0506469,0.18073735,113.8422,11/07.0/2021,2000,g  8.5,4.0
# From MPEC 2021-P47
C/2015 O1 (PANSTARRS),h,02/19.9609/2018,127.2149,299.8480,89.6123,1.001533,3.726722,2000,6.5,4.0
# From MPC 99819
P/2015 P4 (PANSTARRS),e,8.7173,104.7369,280.5850,6.047851,0.0662678,0.58521885,140.2719,11/07.0/2021,2000,g 14.0,4.0
# From MPC102952
P/2015 PD229 (Cameron-ISON),e,2.0262,342.6339,352.5488,7.186136,0.0511636,0.32814015,116.3407,11/07.0/2021,2000,g 11.5,2.0
# From MPC 96867
P/2015 Q2 (Pimentel),e,146.5199,228.4672,244.5598,7.351011,0.0494520,0.75057430,111.4705,11/07.0/2021,2000,g 15.5,4.0
# From MPC 98562
P/2015 R1 (PANSTARRS),e,22.6866,48.3814,300.4915,5.880056,0.0691245,0.63437157,160.5465,11/07.0/2021,2000,g 14.0,4.0
# From MPC 95734
P/2015 R2 (PANSTARRS),e,15.4845,168.5969,149.8045,4.487160,0.1036923,0.45294798,242.4180,11/07.0/2021,2000,g 14.5,4.0
# From MPC117068
C/2015 T2 (PANSTARRS),e,124.5594,50.9988,30.6581,1747,0.0000135,0.99602872,0.0000,05/18.1581/2017,2000,g  8.0,4.0
# From MPC 96280
P/2015 T3 (PANSTARRS),e,13.0937,120.5019,178.6330,4.326181,0.1095335,0.50818108,359.9227,12/21.0/2014,2000,g 14.0,4.0
# From MPC102953
P/2015 TO19 (Lemmon-PANSTARRS),e,6.4996,321.6490,89.1156,4.554439,0.1014032,0.35864854,210.1289,11/07.0/2021,2000,g 14.0,4.0
# From MPC110080
P/2015 TP200 (LINEAR),e,8.7798,7.0134,82.5181,7.270032,0.0502805,0.53535608,92.3499,11/07.0/2021,2000,g 11.0,4.0
# From MPC115881
C/2015 V1 (PANSTARRS),e,139.2266,197.1612,179.6328,2051,0.0000106,0.99791627,0.0000,12/16.5309/2017,2000,g  6.5,4.0
# From MPC112390
